{
  "type": "FeatureCollection",
  "features": [
    {
      "type": "Feature",
      "properties": {
        "norad_id": 44794,
        "name": "BEIDOU-3 M21 (C43)",
        "group": "beidou",
        "lat": -52.49010691905231,
        "lon": -163.37067783425877,
        "alt_km": 21538.987443508726,
        "timestamp": "2025-12-22T22:44:21.240990+00:00",
        "meta_object_name": "BEIDOU-3 M21 (C43)",
        "meta_object_id": "2019-078B",
        "meta_epoch": "2025-12-22T00:36:11.320992",
        "meta_mean_motion": 1.86227905,
        "meta_eccentricity": 0.00042975,
        "meta_inclination": 54.0732,
        "meta_ra_of_asc_node": 306.0255,
        "meta_arg_of_pericenter": 12.7987,
        "meta_mean_anomaly": 347.2125,
        "meta_ephemeris_type": 0,
        "meta_classification_type": "U",
        "meta_norad_cat_id": 44794,
        "meta_element_set_no": 999,
        "meta_rev_at_epoch": 4135,
        "meta_bstar": 0,
        "meta_mean_motion_dot": -5.8e-07,
        "meta_mean_motion_ddot": 0,
        "tle_line1": "1 44794U 19078B   25356.02513103 -.00000058  00000+0  00000+0 0  9991",
        "tle_line2": "2 44794  54.0732 306.0255 0004297  12.7987 347.2125  1.86227905 41355"
      },
      "geometry": {
        "type": "Point",
        "coordinates": [
          -163.37067783425877,
          -52.49010691905231
        ]
      }
    },
    {
      "type": "Feature",
      "properties": {
        "norad_id": 44864,
        "name": "BEIDOU-3 M19 (C41)",
        "group": "beidou",
        "lat": 56.18454659044935,
        "lon": 166.29063334955742,
        "alt_km": 21571.741390560972,
        "timestamp": "2025-12-22T22:44:21.241002+00:00",
        "meta_object_name": "BEIDOU-3 M19 (C41)",
        "meta_object_id": "2019-090A",
        "meta_epoch": "2025-12-22T06:47:40.337664",
        "meta_mean_motion": 1.8623164,
        "meta_eccentricity": 0.00183372,
        "meta_inclination": 56.4008,
        "meta_ra_of_asc_node": 68.6452,
        "meta_arg_of_pericenter": 285.1073,
        "meta_mean_anomaly": 83.7045,
        "meta_ephemeris_type": 0,
        "meta_classification_type": "U",
        "meta_norad_cat_id": 44864,
        "meta_element_set_no": 999,
        "meta_rev_at_epoch": 4094,
        "meta_bstar": 0,
        "meta_mean_motion_dot": -2.9e-07,
        "meta_mean_motion_ddot": 0,
        "tle_line1": "1 44864U 19090A   25356.28310576 -.00000029  00000+0  00000+0 0  9998",
        "tle_line2": "2 44864  56.4008  68.6452 0018337 285.1073  83.7045  1.86231640 40945"
      },
      "geometry": {
        "type": "Point",
        "coordinates": [
          166.29063334955742,
          56.18454659044935
        ]
      }
    },
    {
      "type": "Feature",
      "properties": {
        "norad_id": 44865,
        "name": "BEIDOU-3 M20 (C42)",
        "group": "beidou",
        "lat": -3.0672586663109227,
        "lon": -109.28476607116241,
        "alt_km": 21545.872285315894,
        "timestamp": "2025-12-22T22:44:21.241013+00:00",
        "meta_object_name": "BEIDOU-3 M20 (C42)",
        "meta_object_id": "2019-090B",
        "meta_epoch": "2025-12-22T03:27:20.583072",
        "meta_mean_motion": 1.86231562,
        "meta_eccentricity": 0.00154748,
        "meta_inclination": 56.4023,
        "meta_ra_of_asc_node": 68.6841,
        "meta_arg_of_pericenter": 297.2268,
        "meta_mean_anomaly": 67.9266,
        "meta_ephemeris_type": 0,
        "meta_classification_type": "U",
        "meta_norad_cat_id": 44865,
        "meta_element_set_no": 999,
        "meta_rev_at_epoch": 4092,
        "meta_bstar": 0,
        "meta_mean_motion_dot": -3e-07,
        "meta_mean_motion_ddot": 0,
        "tle_line1": "1 44865U 19090B   25356.14398823 -.00000030  00000+0  00000+0 0  9997",
        "tle_line2": "2 44865  56.4023  68.6841 0015474 297.2268  67.9266  1.86231562 40924"
      },
      "geometry": {
        "type": "Point",
        "coordinates": [
          -109.28476607116241,
          -3.0672586663109227
        ]
      }
    },
    {
      "type": "Feature",
      "properties": {
        "norad_id": 45344,
        "name": "BEIDOU-3 G2 (C60)",
        "group": "beidou",
        "lat": 2.394832305455452,
        "lon": 152.8671016702839,
        "alt_km": 35790.43282299166,
        "timestamp": "2025-12-22T22:44:21.241024+00:00",
        "meta_object_name": "BEIDOU-3 G2 (C60)",
        "meta_object_id": "2020-017A",
        "meta_epoch": "2025-12-19T13:38:45.370752",
        "meta_mean_motion": 1.00273166,
        "meta_eccentricity": 0.0002079,
        "meta_inclination": 2.5096,
        "meta_ra_of_asc_node": 44.0024,
        "meta_arg_of_pericenter": 233.0917,
        "meta_mean_anomaly": 96.0359,
        "meta_ephemeris_type": 0,
        "meta_classification_type": "U",
        "meta_norad_cat_id": 45344,
        "meta_element_set_no": 999,
        "meta_rev_at_epoch": 2145,
        "meta_bstar": 0,
        "meta_mean_motion_dot": -1.18e-06,
        "meta_mean_motion_ddot": 0,
        "tle_line1": "1 45344U 20017A   25353.56858068 -.00000118  00000+0  00000+0 0  9993",
        "tle_line2": "2 45344   2.5096  44.0024 0002079 233.0917  96.0359  1.00273166 21451"
      },
      "geometry": {
        "type": "Point",
        "coordinates": [
          152.8671016702839,
          2.394832305455452
        ]
      }
    },
    {
      "type": "Feature",
      "properties": {
        "norad_id": 45807,
        "name": "BEIDOU-3 G3 (C61)",
        "group": "beidou",
        "lat": 1.8022943101958862,
        "lon": -176.58196502735336,
        "alt_km": 35813.384273908116,
        "timestamp": "2025-12-22T22:44:21.241037+00:00",
        "meta_object_name": "BEIDOU-3 G3 (C61)",
        "meta_object_id": "2020-040A",
        "meta_epoch": "2025-12-22T13:41:28.900032",
        "meta_mean_motion": 1.00269249,
        "meta_eccentricity": 0.00065352,
        "meta_inclination": 2.0136,
        "meta_ra_of_asc_node": 66.6637,
        "meta_arg_of_pericenter": 309.2125,
        "meta_mean_anomaly": 31.4295,
        "meta_ephemeris_type": 0,
        "meta_classification_type": "U",
        "meta_norad_cat_id": 45807,
        "meta_element_set_no": 999,
        "meta_rev_at_epoch": 2029,
        "meta_bstar": 0,
        "meta_mean_motion_dot": -3.33e-06,
        "meta_mean_motion_ddot": 0,
        "tle_line1": "1 45807U 20040A   25356.57047338 -.00000333  00000+0  00000+0 0  9996",
        "tle_line2": "2 45807   2.0136  66.6637 0006535 309.2125  31.4295  1.00269249 20293"
      },
      "geometry": {
        "type": "Point",
        "coordinates": [
          -176.58196502735336,
          1.8022943101958862
        ]
      }
    },
    {
      "type": "Feature",
      "properties": {
        "norad_id": 56564,
        "name": "BEIDOU-3 G4 (C62)",
        "group": "beidou",
        "lat": -0.7633335503335977,
        "lon": -127.08844134529957,
        "alt_km": 35781.28852699089,
        "timestamp": "2025-12-22T22:44:21.241049+00:00",
        "meta_object_name": "BEIDOU-3 G4 (C62)",
        "meta_object_id": "2023-066A",
        "meta_epoch": "2025-12-22T14:50:38.567616",
        "meta_mean_motion": 1.00271266,
        "meta_eccentricity": 0.00026585,
        "meta_inclination": 0.7946,
        "meta_ra_of_asc_node": 302.8024,
        "meta_arg_of_pericenter": 227.0981,
        "meta_mean_anomaly": 304.2399,
        "meta_ephemeris_type": 0,
        "meta_classification_type": "U",
        "meta_norad_cat_id": 56564,
        "meta_element_set_no": 999,
        "meta_rev_at_epoch": 962,
        "meta_bstar": 0,
        "meta_mean_motion_dot": -8.9e-07,
        "meta_mean_motion_ddot": 0,
        "tle_line1": "1 56564U 23066A   25356.61850194 -.00000089  00000+0  00000+0 0  9994",
        "tle_line2": "2 56564   0.7946 302.8024 0002658 227.0981 304.2399  1.00271266  9625"
      },
      "geometry": {
        "type": "Point",
        "coordinates": [
          -127.08844134529957,
          -0.7633335503335977
        ]
      }
    },
    {
      "type": "Feature",
      "properties": {
        "norad_id": 58654,
        "name": "BEIDOU-3 M28 (C50)",
        "group": "beidou",
        "lat": -21.165792051808157,
        "lon": -96.35852626866601,
        "alt_km": 21528.163552348244,
        "timestamp": "2025-12-22T22:44:21.241060+00:00",
        "meta_object_name": "BEIDOU-3 M28 (C50)",
        "meta_object_id": "2023-207A",
        "meta_epoch": "2025-12-22T02:28:45.780096",
        "meta_mean_motion": 1.86229752,
        "meta_eccentricity": 0.00028015,
        "meta_inclination": 55.5924,
        "meta_ra_of_asc_node": 68.2843,
        "meta_arg_of_pericenter": 274.1973,
        "meta_mean_anomaly": 85.8199,
        "meta_ephemeris_type": 0,
        "meta_classification_type": "U",
        "meta_norad_cat_id": 58654,
        "meta_element_set_no": 999,
        "meta_rev_at_epoch": 1354,
        "meta_bstar": 0,
        "meta_mean_motion_dot": -3.2e-07,
        "meta_mean_motion_ddot": 0,
        "tle_line1": "1 58654U 23207A   25356.10330764 -.00000032  00000+0  00000+0 0  9991",
        "tle_line2": "2 58654  55.5924  68.2843 0002801 274.1973  85.8199  1.86229752 13540"
      },
      "geometry": {
        "type": "Point",
        "coordinates": [
          -96.35852626866601,
          -21.165792051808157
        ]
      }
    }
  ]
}